NORAD_CAT_ID,OBJECT_NAME,OBJECT_TYPE,EPOCH,MEAN_MOTION,ECCENTRICITY,INCLINATION,RA_OF_ASC_NODE,ARG_OF_PERICENTER,MEAN_ANOMALY,BSTAR,MEAN_MOTION_DOT,MEAN_MOTION_DDOT,TLE_LINE0,TLE_LINE1,TLE_LINE2,SEMIMAJOR_AXIS,PERIOD,APOGEE,PERIGEE,DECAYED
54807.0,STARLINK-5410,PAYLOAD,2023-01-22 08:37:25,15.73207541,0.0001020999999999,53.216,130.1965,77.8185,282.2949,0.00065359,0.00092148,0.0,0 STARLINK-5410,1 54807U 22175BB  23022.35931900  .00092148  00000-0  65359-3 0  9995,2 54807  53.2160 130.1965 0001021  77.8185 282.2949 15.73207541  5330,6727.874,91.533,350.426,349.052,0.0
54807.0,STARLINK-5410,PAYLOAD,2023-01-22 13:11:51,15.73208596,0.0001536,53.2161,129.2527,70.1343,289.9843,0.0005951,0.00083767,0.0,0 STARLINK-5410,1 54807U 22175BB  23022.54990525  .00083767  00000-0  59510-3 0  9993,2 54807  53.2161 129.2527 0001536  70.1343 289.9843 15.73208596  5368,6727.871,91.533,350.769,348.702,0.0
54807.0,STARLINK-5410,PAYLOAD,2023-01-22 23:52:13,15.73227183,0.0001364,53.2164,127.0534,65.6115,294.5047,0.00051135,0.00071845,0.0,0 STARLINK-5410,1 54807U 22175BB  23022.99460153  .00071845  00000-0  51135-3 0  9990,2 54807  53.2164 127.0534 0001364  65.6115 294.5047 15.73227183  5439,6727.818,91.532,350.6,348.765,0.0
54807.0,STARLINK-5410,PAYLOAD,2023-01-23 09:01:05,15.73245958,6.64e-05,53.216,125.1672,58.1003,302.0082,0.00046284,0.00064968,0.0,0 STARLINK-5410,1 54807U 22175BB  23023.37576140  .00064968  00000-0  46284-3 0  9994,2 54807  53.2160 125.1672 0000664  58.1003 302.0082 15.73245958  5492,6727.764,91.531,350.076,349.182,0.0
54807.0,STARLINK-5410,PAYLOAD,2023-01-23 13:35:32,15.73200096,9.34e-05,53.2149,124.2254,92.3854,267.7273,0.00056367,0.00079236,0.0,0 STARLINK-5410,1 54807U 22175BB  23023.56634670  .00079236  00000-0  56367-3 0  9995,2 54807  53.2149 124.2254 0000934  92.3854 267.7273 15.73200096  5526,6727.895,91.533,350.38800000000003,349.13199999999995,0.0
54807.0,STARLINK-5410,PAYLOAD,2023-01-24 10:56:15,15.73195877,0.000137,53.2154,119.821,105.6039,254.5132,0.00033202,0.00046225,0.0,0 STARLINK-5410,1 54807U 22175BB  23024.45573624  .00046225  00000-0  33202-3 0  9990,2 54807  53.2154 119.8210 0001370 105.6039 254.5132 15.73195877  5665,6727.906999999999,91.533,350.694,348.85,0.0
54807.0,STARLINK-5410,PAYLOAD,2023-01-24 12:27:44,15.73192201,0.0001389,53.2152,119.5071,109.8111,250.3059,0.00016363,0.00022398,0.0,0 STARLINK-5410,1 54807U 22175BB  23024.51926422  .00022398  00000-0  16363-3 0  9999,2 54807  53.2152 119.5071 0001389 109.8111 250.3059 15.73192201  5673,6727.917,91.534,350.717,348.848,0.0
54807.0,STARLINK-5410,PAYLOAD,2023-01-25 12:51:25,15.73225121,0.000113,53.2147,114.479,99.035,261.0798,0.00014129,0.00019276,0.0,0 STARLINK-5410,1 54807U 22175BB  23025.53571110  .00019276  00000-0  14129-3 0  9991,2 54807  53.2147 114.4790 0001130  99.0350 261.0798 15.73225121  5833,6727.8240000000005,91.532,350.449,348.92800000000005,0.0
54807.0,STARLINK-5410,PAYLOAD,2023-01-26 11:43:37,15.73204054,0.0001124,53.2152,109.7598,86.0584,274.0565,1.8312e-05,1.951e-05,0.0,0 STARLINK-5410,1 54807U 22175BB  23026.48862945  .00001951  00000-0  18312-4 0  9995,2 54807  53.2152 109.7598 0001124  86.0584 274.0565 15.73204054  5984,6727.884,91.533,350.505,348.992,0.0
54807.0,STARLINK-5410,PAYLOAD,2023-01-26 22:23:58,15.73231506,9.34e-05,53.215,107.5634,104.2146,255.8978,0.00011139,0.00015062,0.0,0 STARLINK-5410,1 54807U 22175BB  23026.93331997  .00015062  00000-0  11139-3 0  9990,2 54807  53.2150 107.5634 0000934 104.2146 255.8978 15.73231506  6050,6727.805,91.531,350.29900000000004,349.042,0.0
54807.0,STARLINK-5410,PAYLOAD,2023-01-27 12:07:18,15.73203234,0.0001322,53.2148,104.7328,102.6794,257.4374,6.963399999999999e-05,9.165e-05,0.0,0 STARLINK-5410,1 54807U 22175BB  23027.50507504  .00009165  00000-0  69634-4 0  9994,2 54807  53.2148 104.7328 0001322 102.6794 257.4374 15.73203234  6144,6727.886,91.533,350.64,348.862,0.0
54807.0,STARLINK-5410,PAYLOAD,2023-01-28 10:59:30,15.73200555,0.0001349,53.2156,100.0146,106.1837,253.9332,8.2025e-06,5.31e-06,0.0,0 STARLINK-5410,1 54807U 22175BB  23028.45799696  .00000531  00000-0  82025-5 0  9992,2 54807  53.2156 100.0146 0001349 106.1837 253.9332 15.73200555  6290,6727.894,91.533,350.666,348.851,0.0
54807.0,STARLINK-5410,PAYLOAD,2023-01-29 09:51:42,15.73213868,0.0001332,53.2163,95.2982,99.6048,260.5123,4.0282e-05,5.04e-05,0.0,0 STARLINK-5410,1 54807U 22175BB  23029.41091243  .00005040  00000-0  40282-4 0  9990,2 54807  53.2163  95.2982 0001332  99.6048 260.5123 15.73213868  6443,6727.856,91.532,350.617,348.824,0.0
54807.0,STARLINK-5410,PAYLOAD,2023-01-30 10:15:24,15.73202429,0.0001266,53.2156,90.2717,90.0693,270.0472,2.0664e-05,2.281e-05,0.0,0 STARLINK-5410,1 54807U 22175BB  23030.42736412  .00002281  00000-0  20664-4 0  9993,2 54807  53.2156  90.2717 0001266  90.0693 270.0472 15.73202429  6605,6727.888,91.533,350.605,348.901,0.0
54807.0,STARLINK-5410,PAYLOAD,2023-01-30 20:55:45,15.73200487,0.0001321,53.2161,88.0693,86.473,273.6442,-4.0708e-06,-1.191e-05,0.0,0 STARLINK-5410,1 54807U 22175BB  23030.87205902 -.00001191  00000-0 -40708-5 0  9990,2 54807  53.2161  88.0693 0001321  86.4730 273.6442 15.73200487  8837,6727.894,91.533,350.648,348.87,0.0
54807.0,STARLINK-5410,PAYLOAD,2023-01-31 10:39:04,15.73217039,0.0001249,53.2161,85.2414,80.804,279.3122,2.7678e-05,3.269e-05,0.0,0 STARLINK-5410,1 54807U 22175BB  23031.44380136  .00003269  00000-0  27678-4 0  9993,2 54807  53.2161  85.2414 0001249  80.8040 279.3122 15.73217039  6767,6727.847,91.532,350.552,348.871,0.0
54807.0,STARLINK-5410,PAYLOAD,2023-02-01 09:31:16,15.73206998,0.0001482,53.2161,80.524,77.449,282.6696,-2.6022e-06,-9.86e-06,0.0,0 STARLINK-5410,1 54807U 22175BB  23032.39672352 -.00000986  00000-0 -26022-5 0  9990,2 54807  53.2161  80.5240 0001482  77.4490 282.6696 15.73206998  6914,6727.875,91.533,350.737,348.743,0.0
54807.0,STARLINK-5410,PAYLOAD,2023-02-01 20:11:39,15.73198083,0.0001451,53.2162,78.3251,76.9144,283.2038,-6.5445e-07,-7.12e-06,0.0,0 STARLINK-5410,1 54807U 22175BB  23032.84142505 -.00000712  00000-0 -65445-6 0  9992,2 54807  53.2162  78.3251 0001451  76.9144 283.2038 15.73198083  6987,6727.901,91.533,350.742,348.789,0.0
54807.0,STARLINK-5410,PAYLOAD,2023-02-03 01:11:17,15.71810401,0.0001303,53.2163,72.3574,95.0355,265.0814,-0.0018986,-0.00244565,0.0,0 STARLINK-5410,1 54807U 22175BB  23034.04950422 -.00244565  00000-0 -18986-2 0  9991,2 54807  53.2163  72.3574 0001303  95.0355 265.0814 15.71810401  7177,6731.86,91.614,354.602,352.848,0.0
54807.0,STARLINK-5410,PAYLOAD,2023-02-03 14:00:01,15.69837187,0.0001311,53.2154,69.7274,77.9534,62.8413,-0.0080486,-0.00882462,0.0,0 STARLINK-5410,1 54807U 22175BB  23034.58334491 -.00882462  00000-0 -80486-2 0  9990,2 54807  53.2154  69.7274 0001311  77.9534  62.8413 15.69837187  7255,6737.5,91.729,360.248,358.482,0.0
54807.0,STARLINK-5410,PAYLOAD,2023-02-04 00:00:00,15.69012376,0.0001136,53.2153,67.6747,94.4685,241.8307,-0.0081934,-0.00869289,0.0,0 STARLINK-5410,1 54807U 22175BB  23035.00001157 -.00869289  00000-0 -81934-2 0  9999,2 54807  53.2153  67.6747 0001136  94.4685 241.8307 15.69012376  1308,6739.861,91.777,362.491,360.96,0.0
54807.0,STARLINK-5410,PAYLOAD,2023-02-04 06:00:00,15.68556671,0.0001241,53.2151,66.4469,90.3098,218.6923,-0.0089956,-0.00944319,0.0,0 STARLINK-5410,1 54807U 22175BB  23035.25001157 -.00944319  00000-0 -89956-2 0  9996,2 54807  53.2151  66.4469 0001241  90.3098 218.6923 15.68556671  7362,6741.166,91.804,363.868,362.195,0.0
54807.0,STARLINK-5410,PAYLOAD,2023-02-04 14:00:01,15.67896105,0.000118,53.2145,64.8106,73.5384,318.3924,-0.0089128,-0.00913395,0.0,0 STARLINK-5410,1 54807U 22175BB  23035.58334491 -.00913395  00000-0 -89128-2 0  9993,2 54807  53.2145  64.8106 0001180  73.5384 318.3924 15.67896105  1303,6743.059,91.843,365.72,364.129,0.0
54807.0,STARLINK-5410,PAYLOAD,2023-02-04 22:00:00,15.67213553,0.000116,53.2146,63.1727,88.6149,25.4805,-0.0086961,-0.00857834,0.0,0 STARLINK-5410,1 54807U 22175BB  23035.91667824 -.00857834  00000-0 -86961-2 0  9996,2 54807  53.2146  63.1727 0001160  88.6149  25.4805 15.67213553  7466,6745.017,91.883,367.665,366.1,0.0
54807.0,STARLINK-5410,PAYLOAD,2023-02-05 14:00:01,15.65951459,0.0001064,53.2147,59.9075,79.9901,196.104,-0.0098113,-0.00927354,0.0,0 STARLINK-5410,1 54807U 22175BB  23036.58335648 -.00927354  00000-0 -98113-2 0  9993,2 54807  53.2147  59.9075 0001064  79.9901 196.1040 15.65951459  7568,6748.641,91.957,371.224,369.788,0.0
54807.0,STARLINK-5410,PAYLOAD,2023-02-05 22:00:00,15.65256572,9.54e-05,53.2148,58.2744,88.2405,267.6103,-0.0093128,-0.0086181,0.0,0 STARLINK-5410,1 54807U 22175BB  23036.91667824 -.00861810  00000-0 -93128-2 0  9999,2 54807  53.2148  58.2744 0000954  88.2405 267.6103 15.65256572  1307,6750.638,91.998,373.147,371.859,0.0
54807.0,STARLINK-5410,PAYLOAD,2023-02-06 14:00:01,15.64006869,0.0001234,53.2142,55.0188,73.3598,79.7264,-0.010785,-0.00941472,0.0,0 STARLINK-5410,1 54807U 22175BB  23037.58334491 -.00941472  00000-0 -10785-1 0  9994,2 54807  53.2142  55.0188 0001234  73.3598  79.7264 15.64006869  1309,6754.234,92.071,376.932,375.265,0.0
54807.0,STARLINK-5410,PAYLOAD,2023-02-06 22:00:00,15.63305833,0.000114,53.2142,53.3906,93.0592,137.5023,-0.010101,-0.00864574,0.0,0 STARLINK-5410,1 54807U 22175BB  23037.91667824 -.00864574  00000-0 -10101-1 0  9999,2 54807  53.2142  53.3906 0001140  93.0592 137.5023 15.63305833  7772,6756.253,92.112,378.888,377.347,0.0
54807.0,STARLINK-5410,PAYLOAD,2023-02-07 14:00:01,15.6206436,0.0001074,53.2143,50.1445,73.6299,309.472,-0.011895,-0.00959742,0.0,0 STARLINK-5410,1 54807U 22175BB  23038.58334491 -.00959742  00000-0 -11895-1 0  9997,2 54807  53.2143  50.1445 0001074  73.6299 309.4720 15.62064360  7882,6759.832,92.186,382.423,380.971,0.0
54807.0,STARLINK-5410,PAYLOAD,2023-02-07 22:00:00,15.61351869,0.0001202,53.2148,48.5207,85.8901,12.3426,-0.01088,-0.00862702,0.0,0 STARLINK-5410,1 54807U 22175BB  23038.91667824 -.00862702  00000-0 -10880-1 0  9995,2 54807  53.2148  48.5207 0001202  85.8901  12.3426 15.61351869  1308,6761.888,92.228,384.566,382.94,0.0
